{
    "links": {
        "self": "http://www.neowsapp.com/rest/v1/neo/3434372?api_key=iIulBulltgU6a56xZRHN4H3l9WmuAYTsLGpBGhQ2"
    },
    "id": "3434372",
    "neo_reference_id": "3434372",
    "name": "(2008 UZ91)",
    "designation": "2008 UZ91",
    "nasa_jpl_url": "http://ssd.jpl.nasa.gov/sbdb.cgi?sstr=3434372",
    "absolute_magnitude_h": 22.4,
    "estimated_diameter": {
        "kilometers": {
            "estimated_diameter_min": 0.0880146521,
            "estimated_diameter_max": 0.1968067451
        },
        "meters": {
            "estimated_diameter_min": 88.0146520901,
            "estimated_diameter_max": 196.8067450894
        },
        "miles": {
            "estimated_diameter_min": 0.0546897524,
            "estimated_diameter_max": 0.122290004
        },
        "feet": {
            "estimated_diameter_min": 288.7619911632,
            "estimated_diameter_max": 645.6914415591
        }
    },
    "is_potentially_hazardous_asteroid": false,
    "close_approach_data": [
        {
            "close_approach_date": "1979-10-13",
            "close_approach_date_full": "1979-Oct-13 19:36",
            "epoch_date_close_approach": 308691360000,
            "relative_velocity": {
                "kilometers_per_second": "10.7239167493",
                "kilometers_per_hour": "38606.1002974339",
                "miles_per_hour": "23988.3293764805"
            },
            "miss_distance": {
                "astronomical": "0.2222036136",
                "lunar": "86.4372056904",
                "kilometers": "33241187.300863032",
                "miles": "20655115.9983005616"
            },
            "orbiting_body": "Earth"
        },
        {
            "close_approach_date": "2006-10-12",
            "close_approach_date_full": "2006-Oct-12 22:09",
            "epoch_date_close_approach": 1160690940000,
            "relative_velocity": {
                "kilometers_per_second": "14.1390226838",
                "kilometers_per_hour": "50900.4816618038",
                "miles_per_hour": "31627.5798414692"
            },
            "miss_distance": {
                "astronomical": "0.3924814572",
                "lunar": "152.6752868508",
                "kilometers": "58714390.011616164",
                "miles": "36483430.1940805032"
            },
            "orbiting_body": "Earth"
        },
        {
            "close_approach_date": "2008-10-16",
            "close_approach_date_full": "2008-Oct-16 15:46",
            "epoch_date_close_approach": 1224171960000,
            "relative_velocity": {
                "kilometers_per_second": "9.3744382758",
                "kilometers_per_hour": "33747.9777928704",
                "miles_per_hour": "20969.6809791311"
            },
            "miss_distance": {
                "astronomical": "0.2106142912",
                "lunar": "81.9289592768",
                "kilometers": "31507449.355079744",
                "miles": "19577821.1936147072"
            },
            "orbiting_body": "Earth"
        },
        {
            "close_approach_date": "2010-11-11",
            "close_approach_date_full": "2010-Nov-11 15:54",
            "epoch_date_close_approach": 1289490840000,
            "relative_velocity": {
                "kilometers_per_second": "8.971628403",
                "kilometers_per_hour": "32297.8622507679",
                "miles_per_hour": "20068.6355746508"
            },
            "miss_distance": {
                "astronomical": "0.4863666231",
                "lunar": "189.1966163859",
                "kilometers": "72759410.854852797",
                "miles": "45210601.4617587186"
            },
            "orbiting_body": "Earth"
        },
        {
            "close_approach_date": "2035-10-13",
            "close_approach_date_full": "2035-Oct-13 16:33",
            "epoch_date_close_approach": 2075905980000,
            "relative_velocity": {
                "kilometers_per_second": "11.2295492361",
                "kilometers_per_hour": "40426.3772498578",
                "miles_per_hour": "25119.3786861686"
            },
            "miss_distance": {
                "astronomical": "0.2446316938",
                "lunar": "95.1617288882",
                "kilometers": "36596380.326972206",
                "miles": "22739936.2703242028"
            },
            "orbiting_body": "Earth"
        }
    ],
    "orbital_data": {
        "orbit_id": "14",
        "orbit_determination_date": "2017-04-06 09:02:23",
        "first_observation_date": "2008-10-28",
        "last_observation_date": "2008-11-24",
        "data_arc_in_days": 27,
        "observations_used": 52,
        "orbit_uncertainty": "7",
        "minimum_orbit_intersection": ".196874",
        "jupiter_tisserand_invariant": "4.359",
        "epoch_osculation": "2459000.5",
        "eccentricity": ".2650202827156344",
        "semi_major_axis": "1.550750648201924",
        "inclination": "17.65355818790929",
        "ascending_node_longitude": "215.725450099677",
        "orbital_period": "705.3609032543783",
        "perihelion_distance": "1.139770272993997",
        "perihelion_argument": "134.2972087533626",
        "aphelion_distance": "1.961731023409852",
        "perihelion_time": "2458947.065076927296",
        "mean_anomaly": "27.27195711786707",
        "mean_motion": ".5103770259154429",
        "equinox": "J2000",
        "orbit_class": {
            "orbit_class_type": "AMO",
            "orbit_class_description": "Near-Earth asteroid orbits similar to that of 1221 Amor",
            "orbit_class_range": "1.017 AU < q (perihelion) < 1.3 AU"
        }
    },
    "is_sentry_object": false
}